NORAD_CAT_ID,OBJECT_NAME,OBJECT_TYPE,EPOCH,MEAN_MOTION,ECCENTRICITY,INCLINATION,RA_OF_ASC_NODE,ARG_OF_PERICENTER,MEAN_ANOMALY,BSTAR,MEAN_MOTION_DOT,MEAN_MOTION_DDOT,TLE_LINE0,TLE_LINE1,TLE_LINE2,SEMIMAJOR_AXIS,PERIOD,APOGEE,PERIGEE,DECAYED
55647.0,STARLINK-5510,PAYLOAD,2023-05-31 06:00:02,15.50941159,0.000355,70.0006,222.3774,264.3137,350.5364,-0.017919,-0.00956003,0.0,0 STARLINK-5510,1 55647U 23021V   23151.25002315 -.00956003  00000-0 -17919-1 0  9998,2 55647  70.0006 222.3774 0003550 264.3137 350.5364 15.50941159 16618,6792.114,92.847,416.39,411.568,0.0
55647.0,STARLINK-5510,PAYLOAD,2023-05-31 14:00:01,15.50235019,0.0003655,70.0006,221.4669,272.2964,42.6503,-0.016704,-0.00864216,0.0,0 STARLINK-5510,1 55647U 23021V   23151.58334491 -.00864216  00000-0 -16704-1 0  9992,2 55647  70.0006 221.4669 0003655 272.2964  42.6503 15.50235019  1308,6794.176,92.889,418.525,413.558,0.0
55647.0,STARLINK-5510,PAYLOAD,2023-05-31 22:00:00,15.49589204,0.0003647,70.0003,220.5572,269.948,104.3585,-0.017485,-0.00882376,0.0,0 STARLINK-5510,1 55647U 23021V   23151.91667824 -.00882376  00000-0 -17485-1 0  9992,2 55647  70.0003 220.5572 0003647 269.9480 104.3585 15.49589204  1307,6796.064,92.928,420.407,415.45,0.0
55647.0,STARLINK-5510,PAYLOAD,2023-06-01 06:00:00,15.48985106,0.0003605,70.0004,219.6486,268.7327,164.1345,-0.019418,-0.00965667,0.0,0 STARLINK-5510,1 55647U 23021V   23152.25001157 -.00965667  00000-0 -19418-1 0  9994,2 55647  70.0004 219.6486 0003605 268.7327 164.1345 15.48985106 16777,6797.831,92.964,422.146,417.245,0.0
55647.0,STARLINK-5510,PAYLOAD,2023-06-01 12:00:02,15.48440711,0.0003623,70.0003,218.9677,273.3662,113.0036,-0.017845,-0.00866313,0.0,0 STARLINK-5510,1 55647U 23021V   23152.50002315 -.00866313  00000-0 -17845-1 0  9999,2 55647  70.0003 218.9677 0003623 273.3662 113.0036 15.48440711  1305,6799.424,92.997,423.752,418.826,0.0
55647.0,STARLINK-5510,PAYLOAD,2023-06-01 22:00:00,15.47629845,0.0003355,70.0002,217.834,270.6294,277.0659,-0.018681,-0.008801,0.0,0 STARLINK-5510,1 55647U 23021V   23152.91667824 -.00880100  00000-0 -18681-1 0  9995,2 55647  70.0002 217.8340 0003355 270.6294 277.0659 15.47629845 16878,6801.799,93.046,425.946,421.382,0.0
55647.0,STARLINK-5510,PAYLOAD,2023-06-02 12:42:39,15.47797753,0.0004429,69.9983,216.1691,274.4168,85.651,-0.007811,-0.00387628,0.0,0 STARLINK-5510,1 55647U 23021V   23153.52962569 -.00387628  00000-0 -78110-2 0  9998,2 55647  69.9983 216.1691 0004429 274.4168  85.6510 15.47797753 17277,6801.307,93.035,426.184,420.16,0.0
55647.0,STARLINK-5510,PAYLOAD,2023-06-02 14:00:01,15.46329601,0.0003478,69.9999,216.0233,273.3409,26.026,-0.019272,-0.00868937,0.0,0 STARLINK-5510,1 55647U 23021V   23153.58334491 -.00868937  00000-0 -19272-1 0  9991,2 55647  69.9999 216.0233 0003478 273.3409  26.0260 15.46329601 16973,6805.611,93.124,429.843,425.109,0.0
55647.0,STARLINK-5510,PAYLOAD,2023-06-02 22:00:00,15.4566179,0.0003424,69.9998,215.1189,270.6108,83.4342,-0.01951,-0.00860421,0.0,0 STARLINK-5510,1 55647U 23021V   23153.91667824 -.00860421  00000-0 -19510-1 0  9992,2 55647  69.9998 215.1189 0003424 270.6108  83.4342 15.45661790  1305,6807.571,93.164,431.767,427.105,0.0
55647.0,STARLINK-5510,PAYLOAD,2023-06-03 06:00:00,15.45078079,0.0003445,70.0,214.2159,270.1544,137.7513,-0.022594,-0.00979643,0.0,0 STARLINK-5510,1 55647U 23021V   23154.25001157 -.00979643  00000-0 -22594-1 0  9994,2 55647  70.0000 214.2159 0003445 270.1544 137.7513 15.45078079 17088,6809.286,93.199,433.496,428.805,0.0
55647.0,STARLINK-5510,PAYLOAD,2023-06-03 13:34:40,15.46014423,0.0003903,69.9969,213.3643,292.41,67.6669,-0.0060549,-0.00286136,0.0,0 STARLINK-5510,1 55647U 23021V   23154.56574162 -.00286136  00000-0 -60549-2 0  9990,2 55647  69.9969 213.3643 0003903 292.4100  67.6669 15.46014423 17437,6806.536,93.143,431.058,425.744,0.0
55647.0,STARLINK-5510,PAYLOAD,2023-06-03 21:21:01,15.45371417,0.0002185,69.9957,212.4864,291.4442,68.6508,-0.0051727,-0.00240452,0.0,0 STARLINK-5510,1 55647U 23021V   23154.88960556 -.00240452  00000-0 -51727-2 0  9990,2 55647  69.9957 212.4864 0002185 291.4442  68.6508 15.45371417 17484,6808.424,93.181,431.777,428.801,0.0
55647.0,STARLINK-5510,PAYLOAD,2023-06-03 22:00:00,15.43700737,0.0003205,69.9993,212.4118,270.7723,242.5782,-0.020583,-0.00860923,0.0,0 STARLINK-5510,1 55647U 23021V   23154.91667824 -.00860923  00000-0 -20583-1 0  9992,2 55647  69.9993 212.4118 0003205 270.7723 242.5782 15.43700737 17185,6813.335,93.282,437.384,433.017,0.0
55647.0,STARLINK-5510,PAYLOAD,2023-06-04 14:00:01,15.42423603,0.0003201,69.9993,210.6113,273.4441,342.2505,-0.022462,-0.00896847,0.0,0 STARLINK-5510,1 55647U 23021V   23155.58335648 -.00896847  00000-0 -22462-1 0  9994,2 55647  69.9993 210.6113 0003201 273.4441 342.2505 15.42423603 17288,6817.096,93.36,441.143,436.779,0.0
55647.0,STARLINK-5510,PAYLOAD,2023-06-04 16:00:00,15.42285234,0.0003316,69.999,210.3865,274.9975,83.192,-0.023791,-0.0094158,0.0,0 STARLINK-5510,1 55647U 23021V   23155.66667824 -.00941580  00000-0 -23791-1 0  9998,2 55647  69.9990 210.3865 0003316 274.9975  83.1920 15.42285234  1293,6817.504,93.368,441.629,437.108,0.0
55647.0,STARLINK-5510,PAYLOAD,2023-06-04 20:41:23,15.42939966,0.0003021,69.9963,209.8603,290.5925,69.4932,-0.0029753,-0.00129276,0.0,0 STARLINK-5510,1 55647U 23021V   23155.86207574 -.00129276  00000-0 -29753-2 0  9997,2 55647  69.9963 209.8603 0003021 290.5925  69.4932 15.42939966 17631,6815.575,93.328,439.499,435.381,0.0
55647.0,STARLINK-5510,PAYLOAD,2023-06-05 06:00:00,15.41157054,0.0003342,69.999,208.8147,269.1065,85.6799,-0.025507,-0.00969528,0.0,0 STARLINK-5510,1 55647U 23021V   23156.25001157 -.00969528  00000-0 -25507-1 0  9994,2 55647  69.9990 208.8147 0003342 269.1065  85.6799 15.41157054 17399,6820.83,93.436,444.975,440.416,0.0
55647.0,STARLINK-5510,PAYLOAD,2023-06-05 14:00:01,15.40472067,0.0003301,69.9986,207.9175,277.1215,126.1432,-0.024218,-0.00905248,0.0,0 STARLINK-5510,1 55647U 23021V   23156.58335648 -.00905248  00000-0 -24218-1 0  9992,2 55647  69.9986 207.9175 0003301 277.1215 126.1432 15.40472067  1308,6822.852,93.478,446.969,442.465,0.0
55647.0,STARLINK-5510,PAYLOAD,2023-06-05 22:00:00,15.39782138,0.0003216,69.9987,207.0215,271.6499,179.1903,-0.023081,-0.00847813,0.0,0 STARLINK-5510,1 55647U 23021V   23156.91667824 -.00847813  00000-0 -23081-1 0  9993,2 55647  69.9987 207.0215 0003216 271.6499 179.1903 15.39782138 17492,6824.89,93.52,448.95,444.56,0.0
55647.0,STARLINK-5510,PAYLOAD,2023-06-06 00:00:00,15.3963537,0.0003136,69.9985,206.7976,268.7758,283.8399,-0.023668,-0.00863852,0.0,0 STARLINK-5510,1 55647U 23021V   23157.00001157 -.00863852  00000-0 -23668-1 0  9997,2 55647  69.9985 206.7976 0003136 268.7758 283.8399 15.39635370  1306,6825.324,93.529,449.329,445.048,0.0
55647.0,STARLINK-5510,PAYLOAD,2023-06-06 06:00:00,15.3919391,0.0003166,69.9988,206.1263,271.647,226.0199,-0.026989,-0.00961896,0.0,0 STARLINK-5510,1 55647U 23021V   23157.25001157 -.00961896  00000-0 -26989-1 0  9990,2 55647  69.9988 206.1263 0003166 271.6470 226.0199 15.39193910 17548,6826.629,93.555,450.655,446.332,0.0
55647.0,STARLINK-5510,PAYLOAD,2023-06-06 14:00:01,15.38511536,0.0003106,69.9984,205.2318,276.8317,266.9016,-0.025712,-0.0090123,0.0,0 STARLINK-5510,1 55647U 23021V   23157.58334491 -.00901230  00000-0 -25712-1 0  9995,2 55647  69.9984 205.2318 0003106 276.8317 266.9016 15.38511536  1301,6828.647,93.597,452.633,448.391,0.0
55647.0,STARLINK-5510,PAYLOAD,2023-06-06 20:00:01,15.38013568,0.0003136,69.9983,204.5615,273.8144,213.9571,-0.026042,-0.0089831,0.0,0 STARLINK-5510,1 55647U 23021V   23157.83334491 -.00898310  00000-0 -26042-1 0  9994,2 55647  69.9983 204.5615 0003136 273.8144 213.9571 15.38013568 17633,6830.121,93.627,454.128,449.844,0.0
55647.0,STARLINK-5510,PAYLOAD,2023-06-07 12:38:13,15.38367266,0.0003843,69.9972,202.7099,281.6874,78.3874,-0.0077179,-0.00282508,0.0,0 STARLINK-5510,1 55647U 23021V   23158.52654668 -.00282508  00000-0 -77179-2 0  9996,2 55647  69.9972 202.7099 0003843 281.6874  78.3874 15.38367266 18041,6829.074,93.606,453.563,448.315,0.0
55647.0,STARLINK-5510,PAYLOAD,2023-06-07 14:00:01,15.36556483,0.0003309,69.9986,202.5536,275.299,41.9245,-0.027502,-0.00904336,0.0,0 STARLINK-5510,1 55647U 23021V   23158.58334491 -.00904336  00000-0 -27502-1 0  9995,2 55647  69.9986 202.5536 0003309 275.2990  41.9245 15.36556483 17748,6834.438,93.716,458.565,454.042,0.0
55647.0,STARLINK-5510,PAYLOAD,2023-06-07 22:00:00,15.35870946,0.0003346,69.9985,201.6627,270.1821,89.9842,-0.026296,-0.00850142,0.0,0 STARLINK-5510,1 55647U 23021V   23158.91667824 -.00850142  00000-0 -26296-1 0  9995,2 55647  69.9985 201.6627 0003346 270.1821  89.9842 15.35870946  1308,6836.472,93.758,460.624,456.049,0.0
55647.0,STARLINK-5510,PAYLOAD,2023-06-08 06:00:00,15.35273231,0.0003333,69.999,200.7726,271.018,131.2857,-0.030287,-0.00951323,0.0,0 STARLINK-5510,1 55647U 23021V   23159.25001157 -.00951323  00000-0 -30287-1 0  9992,2 55647  69.9990 200.7726 0003333 271.0180 131.2857 15.35273231 17856,6838.246,93.794,462.39,457.832,0.0
55647.0,STARLINK-5510,PAYLOAD,2023-06-08 12:05:13,15.36417164,0.0003144,69.9963,200.0989,269.9044,90.1774,-0.0083286,-0.00286028,0.0,0 STARLINK-5510,1 55647U 23021V   23159.50362273 -.00286028  00000-0 -83286-2 0  9990,2 55647  69.9963 200.0989 0003144 269.9044  90.1774 15.36417164 18190,6834.851,93.725,458.865,454.567,0.0
55647.0,STARLINK-5510,PAYLOAD,2023-06-08 22:00:00,15.33915151,0.0003186,69.9988,198.995,270.5735,213.6947,-0.027991,-0.0085005,0.0,0 STARLINK-5510,1 55647U 23021V   23159.91667824 -.00850050  00000-0 -27991-1 0  9997,2 55647  69.9988 198.9950 0003186 270.5735 213.6947 15.33915151 17954,6842.282,93.877,466.327,461.967,0.0
55647.0,STARLINK-5510,PAYLOAD,2023-06-09 06:00:00,15.33310887,0.0003198,69.9992,198.1075,270.6246,253.4376,-0.031953,-0.00943467,0.0,0 STARLINK-5510,1 55647U 23021V   23160.25001157 -.00943467  00000-0 -31953-1 0  9995,2 55647  69.9992 198.1075 0003198 270.6246 253.4376 15.33310887 18000,6844.079,93.914,468.133,463.755,0.0
